GLOBALSTAR M084         
1 38040U 11080A   24264.68007170 -.00000056  00000+0  26621-3 0  9993
2 38040  51.9994 148.9532 0000702  95.2802 292.2542 12.62267734588637
GLOBALSTAR M080         
1 38041U 11080B   24264.90858954 -.00000066  00000+0  21279-3 0  9998
2 38041  52.0048 149.7699 0000976  97.1646   9.1591 12.62265765588780
GLOBALSTAR M082         
1 38042U 11080C   24264.84572615 -.00000085  00000+0  10571-3 0  9993
2 38042  52.0061 105.3778 0000710  43.6142  77.0327 12.62266888589481
GLOBALSTAR M092         
1 38043U 11080D   24264.88731325 -.00000072  00000+0  17759-3 0  9994
2 38043  52.0073 195.6132 0000430  71.3972 358.4696 12.62266209587940
GLOBALSTAR M090         
1 38044U 11080E   24264.87475927 -.00000095  00000+0  50739-4 0  9998
2 38044  51.9871  99.4444 0000762  66.5933  66.0908 12.62267915589601
GLOBALSTAR M086         
1 38045U 11080F   24264.90244184 -.00000093  00000+0  62110-4 0  9996
2 38045  51.9883  99.8896 0001754  83.0499  56.1404 12.62267291589555
GLOBALSTAR M097         
1 39072U 13005A   24264.74029250 -.00000099  00000+0  26666-4 0  9995
2 39072  52.0071  14.6583 0000855  82.2779 277.8185 12.62270467536782
GLOBALSTAR M093         
1 39073U 13005B   24264.63422483 -.00000084  00000+0  11018-3 0  9997
2 39073  51.9838   8.7130 0000744  78.0932 282.0018 12.62264195536723
